SatCatId,ObjectName,LaunchYear,OrbitalPeriod,LaunchMass,StatusCode,Inclination,Status,UcsData,OrbitClassEstimated,LaunchSiteCountry,Owner,UseType,Purpose,LaunchVehicleClass,TLE1,TLE2,MeanMotion,Eccentricity,OrbitClass
20788,FENGYUN 1B,1990,102.63,-1.0,-,98.9,Inactive,0,LEO,PRC,China,Unknown,Unknown,Unknown,1 20788U 90081A   24314.90203058  .00000215  00000+0  16584-3 0  9998,2 20788  98.9049 294.4212 0016234 155.5040 204.6901 14.03039382749618,14.03039382,0.0016234,LEO
28980,ST5-A,2006,121.13,-1.0,-,105.52,Inactive,0,LEO,Western Range Airspace,USA,Unknown,Unknown,Unknown,1 28980U 06008A   24314.85740142  .00037931  26468-5  15395-2 0  9995,2 28980 105.5249 181.6307 1764476 100.3579 280.0194 11.88810036752263,11.88810036,0.1764476,LEO
28981,ST5-B,2006,99.86,-1.0,-,105.42,Inactive,0,LEO,Western Range Airspace,USA,Unknown,Unknown,Unknown,1 28981U 06008B   24315.16845918  .00262967  15065-4  20220-2 0  9990,2 28981 105.4196 146.8280 0712264 206.2096 150.1323 14.42346087804424,14.42346087,0.0712264,LEO
28982,ST5-C,2006,108.07,-1.0,-,105.52,Inactive,0,LEO,Western Range Airspace,USA,Unknown,Unknown,Unknown,1 28982U 06008C   24315.10224508  .00112999  53880-5  18755-2 0  9998,2 28982 105.5150 129.4495 1158321 359.7703   0.2758 13.32607738785920,13.32607738,0.1158321,LEO
4419,METEOR 1-5,1970,101.7,-1.0,UNK,81.22,Inactive,0,LEO,Russia,Russia/USSR,Unknown,Unknown,Unknown,1 04419U 70047A   24314.67507008  .00000793  00000+0  39376-3 0  9992,2 04419  81.2153  92.1850 0038652 283.9615  75.7262 14.15961821806015,14.15961821,0.0038652,LEO
20804,COSMOS 2100,1990,104.77,-1.0,UNK,82.94,Inactive,0,LEO,Russia,Russia/USSR,Unknown,Unknown,Unknown,1 20804U 90083A   24314.59396208  .00000243  00000+0  23955-3 0  9995,2 20804  82.9403 240.7142 0038154 106.8966  66.0445 13.74490107713180,13.74490107,0.0038154,LEO
12618,RADUGA 9,1981,1435.54,-1.0,-,7.97,Inactive,0,GSO,Kazakhstan,Russia/USSR,Unknown,Unknown,Unknown,1 12618U 81069A   24315.08213296  .00000138  00000+0  00000+0 0  9998,2 12618   7.9701 298.7588 0002406 213.1648 327.3362  1.00310979122470,1.00310979,0.0002406,GSO
12624,DYNAMICS EXPLORER 1,1981,408.21,-1.0,UNK,90.72,Inactive,0,MEO,USA,USA,Unknown,Unknown,Unknown,1 12624U 81070A   24314.15740327  .00000142  00000+0  57756-3 0  9993,2 12624  90.7185  42.3882 6237791  37.8866 352.7549  3.52757291704510,3.52757291,0.6237791,MEO
12627,COSMOS 1285,1981,727.09,-1.0,UNK,68.15,Inactive,0,MEO,Russia,Russia/USSR,Unknown,Unknown,Unknown,1 12627U 81071A   24314.25010483  .00000593  00000+0  00000+0 0  9997,2 12627  68.1540 129.0581 6296102   6.4986 157.0797  1.98050208234917,1.98050208,0.6296102,MEO
37206,EUTELSAT W3B,2010,530.47,-1.0,-,2.59,Inactive,0,MEO,French Guiana,EUTELSAT,Unknown,Unknown,Unknown,1 37206U 10056A   24315.11837696  .00006403  00000+0  18853-2 0  9995,2 37206   2.5884 356.5444 6939555 174.4169 201.5926  2.71472357126105,2.71472357,0.6939555,MEO
12635,FLTSATCOM 5,1981,1460.33,-1.0,-,15.09,Inactive,0,GSO,USA,USA,Unknown,Unknown,Unknown,1 12635U 81073A   24314.75071014 -.00000219  00000+0  00000+0 0  9996,2 12635  15.0867 313.9517 0009620 181.6109 354.9670  0.98607604127305,0.98607604,0.000962,GSO
12636,COSMOS 1287,1981,115.72,-1.0,UNK,74.03,Inactive,0,LEO,Russia,Russia/USSR,Unknown,Unknown,Unknown,1 12636U 81074A   24314.78365362  .00000011  00000+0  18566-3 0  9992,2 12636  74.0329 252.0286 0030338 160.8924 199.3269 12.44342506965726,12.44342506,0.0030338,LEO
37212,MERIDIAN 3,2010,717.91,2500.0,-,63.48,Inactive,1,MEO,Russia,Russia/USSR,Military,Communications,Soyuz,1 37212U 10058A   24312.60019309  .00000126  00000+0  00000+0 0  9996,2 37212  63.4792 150.3759 6506883 263.5463  24.2054  2.00580899102699,2.00580899,0.6506883,MEO
12637,COSMOS 1288,1981,115.5,-1.0,UNK,74.03,Inactive,0,LEO,Russia,Russia/USSR,Unknown,Unknown,Unknown,1 12637U 81074B   24314.88968921  .00000011  00000+0  18093-3 0  9999,2 12637  74.0313 160.0107 0017198  65.8166 305.6679 12.46700646968827,12.46700646,0.0017198,LEO
20826,METEOR 2-20,1990,104.02,-1.0,UNK,82.52,Inactive,0,LEO,Russia,Russia/USSR,Unknown,Unknown,Unknown,1 20826U 90086A   24314.68685317  .00000231  00000+0  19360-3 0  9996,2 20826  82.5218 303.4616 0012472 221.1615 138.8605 13.84390096723447,13.84390096,0.0012472,LEO
20830,NAVSTAR 21 (USA 64),1990,766.97,-1.0,-,56.19,Inactive,0,MEO,USA,USA,Unknown,Unknown,Unknown,1 20830U 90088A   24314.65433296 -.00000076  00000+0  00000+0 0  9992,2 20830  56.1935  29.7085 0022788 279.1404  86.4191  1.87752385241832,1.87752385,0.0022788,MEO
12641,COSMOS 1292,1981,115.32,-1.0,UNK,74.03,Inactive,0,LEO,Russia,Russia/USSR,Unknown,Unknown,Unknown,1 12641U 81074F   24314.76641914  .00000011  00000+0  17933-3 0  9993,2 12641  74.0332  81.2150 0008949 299.8198 206.9740 12.48728523972141,12.48728523,0.0008949,LEO
12642,COSMOS 1293,1981,114.59,-1.0,UNK,74.03,Inactive,0,LEO,Russia,Russia/USSR,Unknown,Unknown,Unknown,1 12642U 81074G   24314.96634228  .00000038  00000+0  32322-3 0  9994,2 12642  74.0305 127.7585 0035759 169.9818 358.5575 12.56705706984662,12.56705706,0.0035759,LEO
12643,COSMOS 1294,1981,114.4,-1.0,UNK,74.04,Inactive,0,LEO,Russia,Russia/USSR,Unknown,Unknown,Unknown,1 12643U 81074H   24314.25108760  .00000008  00000+0  14210-3 0  9997,2 12643  74.0352  46.5413 0045465  68.5671 320.4323 12.58756820987813,12.5875682,0.0045465,LEO
12638,COSMOS 1289,1981,114.77,-1.0,UNK,74.03,Inactive,0,LEO,Russia,Russia/USSR,Unknown,Unknown,Unknown,1 12638U 81074C   24314.96608608  .00000000  00000+0  10205-3 0  9997,2 12638  74.0341 206.6329 0025618 254.7630 116.6491 12.54710947981509,12.54710947,0.0025618,LEO
12645,INTERCOSMOS 22,1981,101.5,-1.0,UNK,81.22,Inactive,0,LEO,Russia,Russia/USSR,Unknown,Unknown,Unknown,1 12645U 81075A   24315.07389442  .00000581  00000+0  26765-3 0  9993,2 12645  81.2184  65.8380 0063900  85.3367 275.5102 14.18780936237511,14.18780936,0.00639,LEO
37223,RAX (USA 218),2010,96.42,-1.0,-,71.97,Inactive,0,LEO,USA,USA,Unknown,Unknown,Unknown,1 37223U 10062B   24313.37924435  .00013176  00000+0  12531-2 0  9997,2 37223  71.9711 294.1315 0012739  74.2621 285.9953 14.93472292 26523,14.93472292,0.0012739,LEO
12639,COSMOS 1290,1981,114.94,-1.0,UNK,74.03,Inactive,0,LEO,Russia,Russia/USSR,Unknown,Unknown,Unknown,1 12639U 81074D   24314.66677791  .00000023  00000+0  24930-3 0  9999,2 12639  74.0316 281.0832 0015246 339.2962 194.3705 12.52821300978502,12.528213,0.0015246,LEO
37225,FASTSAT-HSV01 (USA 220),2010,97.24,-1.0,UNK,71.98,Inactive,0,LEO,USA,USA,Unknown,Unknown,Unknown,1 37225U 10062D   24314.59904436  .00003685  00000+0  48282-3 0  9990,2 37225  71.9754  18.8205 0015430 151.0239 209.1785 14.80885991 27545,14.80885991,0.001543,LEO
37227,FASTRAC 1 (USA 222),2010,97.09,55.0,-,71.97,Inactive,1,LEO,USA,USA,Civil/Military,Technology Development,Minotaur,1 37227U 10062F   24315.15198753  .00005141  00000+0  63455-3 0  9990,2 37227  71.9700 359.8539 0013154 139.1777 221.0376 14.83213203279206,14.83213203,0.0013154,LEO
37234,ZHONGXING-20A,2010,1463.17,2300.0,-,5.74,Inactive,1,GSO,PRC,China,Military,Communications,Long March,1 37234U 10064A   24314.61465524 -.00000060  00000+0  00000+0 0  9992,2 37234   5.7374  91.6211 0020493 242.3762 142.2746  0.98416664 51018,0.98416664,0.0020493,GSO
29047,FORMOSAT-3 FM6,2006,100.66,70.0,-,71.98,Inactive,1,LEO,USA,Taiwan,Civil/Government,Earth Observation,Minotaur,1 29047U 06011A   24314.85232696  .00003996  00000+0  15284-2 0  9993,2 29047  71.9783  68.5631 0048433 171.5579 188.6385 14.30506416970808,14.30506416,0.0048433,LEO
29048,FORMOSAT-3 FM1,2006,100.67,70.0,-,71.97,Inactive,1,LEO,USA,Taiwan,Civil/Government,Earth Observation,Minotaur,1 29048U 06011B   24315.05014840  .00002479  00000+0  95868-3 0  9998,2 29048  71.9676 337.2512 0040611 132.3409 228.1181 14.30482129973318,14.30482129,0.0040611,LEO
29049,FORMOSAT-3 FM5,2006,100.66,-1.0,-,72.02,Inactive,0,LEO,USA,Taiwan,Unknown,Unknown,Unknown,1 29049U 06011C   24314.96887951  .00002274  00000+0  88262-3 0  9992,2 29049  72.0184 158.1866 0033296 144.9703 215.3635 14.30502399969111,14.30502399,0.0033296,LEO
29050,FORMOSAT-3 FM3,2006,98.36,70.0,-,72.01,Inactive,1,LEO,USA,Taiwan,Civil/Government,Earth Observation,Minotaur,1 29050U 06011D   24314.84065374  .00009277  00000+0  17487-2 0  9998,2 29050  72.0144 135.8793 0047304 278.8547  80.7253 14.63980265990794,14.63980265,0.0047304,LEO
29051,FORMOSAT-3 FM4,2006,100.66,70.0,-,72.01,Inactive,1,LEO,USA,Taiwan,Civil/Government,Earth Observation,Minotaur,1 29051U 06011E   24314.62964980  .00003091  00000+0  11703-2 0  9999,2 29051  72.0060  57.7102 0066367  23.4625 336.9516 14.30613374971637,14.30613374,0.0066367,LEO
29052,FORMOSAT-3 FM2,2006,100.65,70.0,-,72.03,Inactive,1,LEO,USA,Taiwan,Civil/Government,Earth Observation,Minotaur,1 29052U 06011F   24314.94055176  .00002731  00000+0  10511-2 0  9999,2 29052  72.0319 136.1211 0037658  97.9769 262.5645 14.30684861969187,14.30684861,0.0037658,LEO
4478,INTELSAT 3-F8,1970,1408.11,-1.0,-,4.02,Inactive,0,GSO,USA,INTELSAT,Unknown,Unknown,Unknown,1 04478U 70055A   24315.11438309 -.00000210  00000+0  00000+0 0  9996,2 04478   4.0197  75.4665 0315111  98.2661  35.3482  1.02264713116899,1.02264713,0.0315111,GSO
12677,HIMAWARI-2 (GMS-2),1981,1446.49,-1.0,-,9.24,Inactive,0,GSO,Japan,Japan,Unknown,Unknown,Unknown,1 12677U 81076A   24314.65253515  .00000085  00000+0  00000+0 0  9992,2 12677   9.2393 308.5012 0011257 303.0095  69.2913  0.99551863126416,0.99551863,0.0011257,GSO
20872,SBS-6,1990,1454.67,-1.0,-,11.75,Inactive,0,GSO,French Guiana,USA,Unknown,Unknown,Unknown,1 20872U 90091A   24314.83721940 -.00000084  00000+0  00000+0 0  9997,2 20872  11.7551  33.0519 0008727 144.6543 273.9761  0.98990808 40317,0.98990808,0.0008727,GSO
12681,COSMOS 1295,1981,104.61,-1.0,UNK,82.92,Inactive,0,LEO,Russia,Russia/USSR,Unknown,Unknown,Unknown,1 12681U 81077A   24314.92569858  .00000176  00000+0  16224-3 0  9998,2 12681  82.9207 196.1672 0045172 106.7817 264.1659 13.76566476171866,13.76566476,0.0045172,LEO
